      2.10          N: GNSS NAV DATA                        RINEX VERSION / TYPE
fic2rin                                 08/30/2020 00:17:33 PGM / RUN BY / DATE
                                                            END OF HEADER
 6 20  8 29  1 59 44.0-3.204704262316e-04-3.751665644813e-12 0.000000000000e+00
    3.700000000000e+01-5.925000000000e+01 4.002666727136e-09 2.187748164561e+00
   -3.011897206306e-06 1.756644109264e-03 2.957880496979e-06 5.153606056213e+03
    5.255840000000e+05 1.862645149231e-09 1.435807749556e+00 1.303851604462e-08
    9.805202998862e-01 3.311562500000e+02-1.108701503834e+00-8.027834391525e-09
   -4.607334771129e-11 1.000000000000e+00 2.120000000000e+03 0.000000000000e+00
    2.400000000000e+00 0.000000000000e+00 4.190951585770e-09 3.700000000000e+01
    5.184000000000e+05 4.000000000000e+00
 8 20  8 29  1 59 44.0-4.607485607266e-05-1.250555214938e-12 0.000000000000e+00
    4.100000000000e+01 1.042500000000e+02 4.226604626476e-09-2.116762098221e+00
    5.416572093964e-06 5.424442351796e-03 4.919245839119e-06 5.153716123581e+03
    5.255840000000e+05-6.519258022308e-08 3.730462036489e-01-5.029141902924e-08
    9.694586730450e-01 2.902812500000e+02-6.126344841710e-02-8.106409093049e-09
    2.303667385565e-10 1.000000000000e+00 2.120000000000e+03 0.000000000000e+00
    2.400000000000e+00 0.000000000000e+00 5.122274160385e-09 4.100000000000e+01
    5.184000000000e+05 4.000000000000e+00
21 20  8 29  1 59 44.0 4.099728539586e-05 4.320099833421e-12 0.000000000000e+00
    1.800000000000e+01-6.215625000000e+01 4.853773607725e-09-1.106621581036e+00
   -2.892687916756e-06 2.378663199488e-02 2.680346369743e-06 5.155053575516e+03
    5.255840000000e+05-4.023313522339e-07 1.367549337862e+00 1.993030309677e-07
    9.539429302492e-01 3.304687500000e+02-1.296965413072e+00-8.813581406757e-09
    8.571785620706e-11 1.000000000000e+00 2.120000000000e+03 0.000000000000e+00
    2.400000000000e+00 0.000000000000e+00-1.024454832077e-08 1.800000000000e+01
    5.184000000000e+05 4.000000000000e+00
25 20  8 29  1 59 44.0 4.154257476330e-05 5.115907697473e-12 0.000000000000e+00
    2.200000000000e+01 5.487500000000e+01 4.364824669610e-09 2.258147883095e-01
    2.926215529442e-06 9.092103457078e-03 9.752810001373e-06 5.153748931885e+03
    5.255840000000e+05-4.284083843231e-08-6.572236523003e-01 9.685754776001e-08
    9.644263504229e-01 1.927812500000e+02 9.345185526888e-01-8.001761876929e-09
   -4.660908431259e-10 1.000000000000e+00 2.120000000000e+03 0.000000000000e+00
    2.400000000000e+00 0.000000000000e+00 5.587935447693e-09 2.200000000000e+01
    5.184000000000e+05 4.000000000000e+00
 2 20  8 29  2  0  0.0-5.088266916573e-04-5.343281372916e-12 0.000000000000e+00
    9.700000000000e+01-5.437500000000e+01 4.362681723205e-09 2.105989364053e+00
   -3.047287464142e-06 1.978934125509e-02 1.855194568634e-06 5.153770023346e+03
    5.256000000000e+05 2.980232238770e-07 1.365816631356e+00-2.048909664154e-07
    9.599245594309e-01 3.383437500000e+02-1.608496182128e+00-8.009619347081e-09
   -5.928818387655e-11 1.000000000000e+00 2.120000000000e+03 0.000000000000e+00
    2.400000000000e+00 0.000000000000e+00-1.769512891769e-08 9.700000000000e+01
    5.184000000000e+05 4.000000000000e+00
 1 20  8 29  2  0  0.0 3.560213372111e-05 9.094947017729e-13 0.000000000000e+00
    6.800000000000e+01-6.828125000000e+01 4.108742574192e-09 1.862343715348e+00
   -3.678724169731e-06 1.008270692546e-02 2.562999725342e-06 5.153702802658e+03
    5.256000000000e+05-1.247972249985e-07 1.444060092385e+00-7.450580596924e-08
    9.809825702959e-01 3.425937500000e+02 8.252027453038e-01-8.155339702633e-09
   -1.164334213479e-10 1.000000000000e+00 2.120000000000e+03 0.000000000000e+00
    2.400000000000e+00 0.000000000000e+00 5.122274160385e-09 6.800000000000e+01
    5.184000000000e+05 4.000000000000e+00
 7 20  8 29  2  0  0.0-3.605503588915e-04-8.299139153678e-12 0.000000000000e+00
    6.300000000000e+01-4.250000000000e+00 5.265933632987e-09 1.158782516172e+00
   -4.284083843231e-08 1.419999147765e-02 6.446614861488e-06 5.153638463974e+03
    5.256000000000e+05-1.341104507446e-07-1.694848020217e+00 1.601874828339e-07
    9.523572279926e-01 2.557812500000e+02-2.368259909977e+00-8.477853136612e-09
   -4.475186409477e-10 1.000000000000e+00 2.120000000000e+03 0.000000000000e+00
    2.400000000000e+00 0.000000000000e+00-1.117587089539e-08 6.300000000000e+01
    5.184000000000e+05 4.000000000000e+00
 5 20  8 29  2  0  0.0-1.986324787140e-05-7.958078640513e-13 0.000000000000e+00
    9.400000000000e+01-8.359375000000e+01 4.440899266994e-09-1.504913322480e+00
   -4.351139068604e-06 6.085852743126e-03 9.249895811081e-06 5.153726890564e+03
    5.256000000000e+05 1.396983861923e-07 2.451099436827e+00-5.215406417847e-08
    9.536486437967e-01 1.900312500000e+02 8.568016163579e-01-7.917115493925e-09
    1.764359206929e-10 1.000000000000e+00 2.120000000000e+03 0.000000000000e+00
    2.400000000000e+00 0.000000000000e+00-1.117587089539e-08 9.400000000000e+01
    5.184000000000e+05 4.000000000000e+00
 3 20  8 29  2  0  0.0-2.835430204868e-04-1.080024958355e-11 0.000000000000e+00
    8.600000000000e+01-9.087500000000e+01 4.170530862208e-09 7.374480068124e-01
   -4.937872290611e-06 3.182680811733e-03 9.503215551376e-06 5.153762590408e+03
    5.256000000000e+05-2.235174179077e-08 2.484265145809e+00 5.029141902924e-08
    9.667557300109e-01 2.010937500000e+02 8.447406526217e-01-7.812825435539e-09
    1.432202514126e-10 1.000000000000e+00 2.120000000000e+03 0.000000000000e+00
    2.400000000000e+00 0.000000000000e+00 1.862645149231e-09 8.600000000000e+01
    5.184000000000e+05 4.000000000000e+00
 4 20  8 29  2  0  0.0-1.298263669014e-04-4.320099833421e-12 0.000000000000e+00
    9.700000000000e+01 1.550000000000e+01 4.763412700973e-09-3.032109203107e+00
    8.996576070786e-07 8.055549114943e-04 8.376315236092e-06 5.153634096146e+03
    5.256000000000e+05 9.313225746155e-09-2.719949803524e+00-2.793967723846e-08
    9.603967659802e-01 2.220625000000e+02-2.799572162858e+00-7.937473484774e-09
    5.178787145843e-10 1.000000000000e+00 2.120000000000e+03 0.000000000000e+00
    2.400000000000e+00 0.000000000000e+00-4.190951585770e-09 3.530000000000e+02
    5.184000000000e+05 4.000000000000e+00
31 20  8 29  2  0  0.0-6.519025191665e-05-2.387423592154e-12 0.000000000000e+00
    1.030000000000e+02 2.625000000000e+00 5.044495837785e-09 8.368112782172e-01
    2.998858690262e-07 9.628628846258e-03 6.051734089851e-06 5.153634477615e+03
    5.256000000000e+05 8.009374141693e-08-1.678895868478e+00 9.872019290924e-08
    9.567565035373e-01 2.572187500000e+02 1.510047740692e-01-8.227842722675e-09
   -4.721625246072e-10 1.000000000000e+00 2.120000000000e+03 0.000000000000e+00
    2.400000000000e+00 0.000000000000e+00-1.303851604462e-08 1.030000000000e+02
    5.184000000000e+05 4.000000000000e+00
29 20  8 29  2  0  0.0-1.829355023801e-04-8.185452315956e-12 0.000000000000e+00
    7.400000000000e+01 8.521875000000e+01 3.968022426918e-09-2.116154384496e+00
    4.371628165245e-06 1.626847893931e-03 4.114583134651e-06 5.153761077881e+03
    5.256000000000e+05 1.862645149231e-08 4.589574678665e-01-1.862645149231e-08
    9.855534446683e-01 3.138437500000e+02 2.185512471710e+00-7.999261772790e-09
    1.471489864888e-10 1.000000000000e+00 2.120000000000e+03 0.000000000000e+00
    2.400000000000e+00 0.000000000000e+00-1.024454832077e-08 7.400000000000e+01
    5.184000000000e+05 4.000000000000e+00
16 20  8 29  2  0  0.0-2.018404193223e-04-5.002220859751e-12 0.000000000000e+00
    5.700000000000e+01 7.512500000000e+01 3.878375835635e-09-1.404950165425e+00
    3.846362233162e-06 1.153064542450e-02 1.050345599651e-05 5.153566562653e+03
    5.256000000000e+05 2.086162567139e-07-5.683012520968e-01-1.173466444016e-07
    9.773615788728e-01 1.857500000000e+02 6.276942427161e-01-7.564600810273e-09
   -3.289422731946e-10 1.000000000000e+00 2.120000000000e+03 0.000000000000e+00
    2.400000000000e+00 0.000000000000e+00-1.071020960808e-08 5.700000000000e+01
    5.184000000000e+05 4.000000000000e+00
10 20  8 29  2  0  0.0-4.401993937790e-04-1.011812855722e-11 0.000000000000e+00
    8.800000000000e+01-9.962500000000e+01 4.170530862208e-09-1.525607761630e-01
   -5.079433321953e-06 5.837514065206e-03 1.030974090099e-05 5.153674062729e+03
    5.256000000000e+05 3.911554813385e-08 2.481265578579e+00 1.043081283569e-07
    9.666829322814e-01 1.844687500000e+02-2.656121839233e+00-7.876399512226e-09
    2.128660095809e-10 1.000000000000e+00 2.120000000000e+03 0.000000000000e+00
    2.400000000000e+00 0.000000000000e+00 2.328306436539e-09 8.800000000000e+01
    5.184000000000e+05 4.000000000000e+00
 9 20  8 29  2  0  0.0-2.776999026537e-04-5.911715561524e-12 0.000000000000e+00
    9.700000000000e+01 1.475000000000e+01 4.920562104019e-09-1.845778233741e+00
    9.257346391678e-07 1.696433173493e-03 8.229166269302e-06 5.153662923813e+03
    5.256000000000e+05-7.450580596924e-09-2.768590637381e+00-1.676380634308e-08
    9.531801867065e-01 2.189687500000e+02 1.765218073698e+00-8.043549331830e-09
    5.464513333200e-10 1.000000000000e+00 2.120000000000e+03 0.000000000000e+00
    2.400000000000e+00 0.000000000000e+00 1.396983861923e-09 9.700000000000e+01
    5.184000000000e+05 4.000000000000e+00
30 20  8 29  2  0  0.0-2.913214266300e-04-7.275957614183e-12 0.000000000000e+00
    9.100000000000e+01-7.968750000000e+00 5.522730043874e-09 1.115077077836e+00
   -2.346932888031e-07 4.777965601534e-03 6.105750799179e-06 5.153593959808e+03
    5.256000000000e+05 3.725290298462e-08-1.673580414153e+00 2.048909664154e-08
    9.376433340028e-01 2.486875000000e+02-2.807160630537e+00-8.514283225500e-09
   -3.868018261344e-10 1.000000000000e+00 2.120000000000e+03 0.000000000000e+00
    2.400000000000e+00 0.000000000000e+00 3.725290298462e-09 9.100000000000e+01
    5.184000000000e+05 4.000000000000e+00
